{
    "links": {
        "self": "http://www.neowsapp.com/rest/v1/neo/3873317?api_key=iIulBulltgU6a56xZRHN4H3l9WmuAYTsLGpBGhQ2"
    },
    "id": "3873317",
    "neo_reference_id": "3873317",
    "name": "(2019 TR)",
    "designation": "2019 TR",
    "nasa_jpl_url": "http://ssd.jpl.nasa.gov/sbdb.cgi?sstr=3873317",
    "absolute_magnitude_h": 25.6,
    "estimated_diameter": {
        "kilometers": {
            "estimated_diameter_min": 0.0201629919,
            "estimated_diameter_max": 0.0450858206
        },
        "meters": {
            "estimated_diameter_min": 20.1629919443,
            "estimated_diameter_max": 45.0858206172
        },
        "miles": {
            "estimated_diameter_min": 0.0125286985,
            "estimated_diameter_max": 0.0280150214
        },
        "feet": {
            "estimated_diameter_min": 66.1515504905,
            "estimated_diameter_max": 147.9193637137
        }
    },
    "is_potentially_hazardous_asteroid": false,
    "close_approach_data": [
        {
            "close_approach_date": "1908-10-10",
            "close_approach_date_full": "1908-Oct-10 16:41",
            "epoch_date_close_approach": -1932103140000,
            "relative_velocity": {
                "kilometers_per_second": "10.4950365367",
                "kilometers_per_hour": "37782.1315322593",
                "miles_per_hour": "23476.3472290308"
            },
            "miss_distance": {
                "astronomical": "0.110773868",
                "lunar": "43.091034652",
                "kilometers": "16571534.70446116",
                "miles": "10297074.183677608"
            },
            "orbiting_body": "Earth"
        },
        {
            "close_approach_date": "2019-10-01",
            "close_approach_date_full": "2019-Oct-01 10:36",
            "epoch_date_close_approach": 1569926160000,
            "relative_velocity": {
                "kilometers_per_second": "8.1423245245",
                "kilometers_per_hour": "29312.36828802",
                "miles_per_hour": "18213.5657287422"
            },
            "miss_distance": {
                "astronomical": "0.0401684898",
                "lunar": "15.6255425322",
                "kilometers": "6009120.515196726",
                "miles": "3733894.3451617788"
            },
            "orbiting_body": "Earth"
        }
    ],
    "orbital_data": {
        "orbit_id": "5",
        "orbit_determination_date": "2019-10-20 06:05:11",
        "first_observation_date": "2019-10-02",
        "last_observation_date": "2019-10-07",
        "data_arc_in_days": 5,
        "observations_used": 49,
        "orbit_uncertainty": "7",
        "minimum_orbit_intersection": ".025921",
        "jupiter_tisserand_invariant": "3.785",
        "epoch_osculation": "2459000.5",
        "eccentricity": ".4724378582491243",
        "semi_major_axis": "1.913223698222778",
        "inclination": "4.87176871985322",
        "ascending_node_longitude": "193.09162075",
        "orbital_period": "966.600586524779",
        "perihelion_distance": "1.00934439188294",
        "perihelion_argument": "152.277037919968",
        "aphelion_distance": "2.817103004562616",
        "perihelion_time": "2458739.976405293905",
        "mean_anomaly": "97.02921289484433",
        "mean_motion": ".3724392525917128",
        "equinox": "J2000",
        "orbit_class": {
            "orbit_class_type": "APO",
            "orbit_class_description": "Near-Earth asteroid orbits which cross the Earth’s orbit similar to that of 1862 Apollo",
            "orbit_class_range": "a (semi-major axis) > 1.0 AU; q (perihelion) < 1.017 AU"
        }
    },
    "is_sentry_object": false
}